KUIPER-00016            
1 63732U 25088J   25203.22447005 -.00119160  00000+0 -66002-2 0  9995
2 63732  51.8837  54.9326 0010337  41.8572 318.3193 15.13800994 13142
KUIPER-00018            
1 63733U 25088K   25203.25002315 -.01557413  00000+0 -49290-1 0  9997
2 63733  51.8677  51.0015 0006788  52.0877 203.0596 15.35557191 13199
KUIPER-00019            
1 63734U 25088L   25202.87063411  .00012844  00000+0  35857-3 0  9996
2 63734  51.8681  52.7398 0003876  64.0617 296.0768 15.37069568 13143
KUIPER-00020            
1 63735U 25088M   25202.91670139 -.00005651  00000+0 -17954-3 0  9991
2 63735  51.8730  53.1527 0007583  47.5696 250.3332 15.29978968  5527
KUIPER-00021            
1 63736U 25088N   25203.25002315 -.00423263  00000+0 -16491-1 0  9991
2 63736  51.8700  51.9012 0005335  59.2600 118.0487 15.27296102 13226
KUIPER-00023            
1 63737U 25088P   25202.91670139 -.00005335  00000+0 -19965-3 0  9996
2 63737  51.8726  54.0164 0009248  53.5539 201.1143 15.24577590  2650
KUIPER-00024            
1 63738U 25088Q   25202.87267559  .00009163  00000+0  24948-3 0  9998
2 63738  51.8708  52.0380 0001949  97.3888 262.7321 15.38237273 13628
KUIPER-00025            
1 63739U 25088R   25203.25002315 -.00713413  00000+0 -23455-1 0  9991
2 63739  51.8682  51.0943 0006108  51.8240 146.0174 15.33517135 13525
